{
  "type": "FeatureCollection",
  "features": [
    {
      "type": "Feature",
      "properties": {
        "norad_id": 66174,
        "name": "HTV-X1",
        "group": "stations",
        "lat": -29.73713943192429,
        "lon": -59.964676895256005,
        "alt_km": 420.3267227979295,
        "timestamp": "2025-12-22T16:55:16.200896+00:00",
        "meta_object_name": "HTV-X1",
        "meta_object_id": "2025-241A",
        "meta_epoch": "2025-12-21T22:57:18.016992",
        "meta_mean_motion": 15.49714244,
        "meta_eccentricity": 0.00031643,
        "meta_inclination": 51.6324,
        "meta_ra_of_asc_node": 96.8363,
        "meta_arg_of_pericenter": 283.4657,
        "meta_mean_anomaly": 76.5979,
        "meta_ephemeris_type": 0,
        "meta_classification_type": "U",
        "meta_norad_cat_id": 66174,
        "meta_element_set_no": 999,
        "meta_rev_at_epoch": 51,
        "meta_bstar": 0.00020227117,
        "meta_mean_motion_dot": 0.0001099,
        "meta_mean_motion_ddot": 0,
        "tle_line1": "1 66174U 25241A   25355.95645853  .00010990  00000+0  20227-3 0  9997",
        "tle_line2": "2 66174  51.6324  96.8363 0003164 283.4657  76.5979 15.49714244   511"
      },
      "geometry": {
        "type": "Point",
        "coordinates": [
          -59.964676895256005,
          -29.73713943192429
        ]
      }
    },
    {
      "type": "Feature",
      "properties": {
        "norad_id": 66515,
        "name": "SZ-21 MODULE",
        "group": "stations",
        "lat": 16.87122481229147,
        "lon": -24.68866933133504,
        "alt_km": 375.0871948107715,
        "timestamp": "2025-12-22T16:55:16.200907+00:00",
        "meta_object_name": "SZ-21 MODULE",
        "meta_object_id": "2025-246C",
        "meta_epoch": "2025-12-22T06:04:32.826144",
        "meta_mean_motion": 15.62957896,
        "meta_eccentricity": 0.00052091,
        "meta_inclination": 41.4776,
        "meta_ra_of_asc_node": 317.9924,
        "meta_arg_of_pericenter": 311.1717,
        "meta_mean_anomaly": 48.8673,
        "meta_ephemeris_type": 0,
        "meta_classification_type": "U",
        "meta_norad_cat_id": 66515,
        "meta_element_set_no": 999,
        "meta_rev_at_epoch": 593,
        "meta_bstar": 0.00031521047,
        "meta_mean_motion_dot": 0.00029176,
        "meta_mean_motion_ddot": 0,
        "tle_line1": "1 66515U 25246C   25356.25315771  .00029176  00000+0  31521-3 0  9993",
        "tle_line2": "2 66515  41.4776 317.9924 0005209 311.1717  48.8673 15.62957896  5937"
      },
      "geometry": {
        "type": "Point",
        "coordinates": [
          -24.68866933133504,
          16.87122481229147
        ]
      }
    },
    {
      "type": "Feature",
      "properties": {
        "norad_id": 66645,
        "name": "SHENZHOU-22",
        "group": "stations",
        "lat": -1.9764183027362,
        "lon": -46.05047729874607,
        "alt_km": 391.4193168951306,
        "timestamp": "2025-12-22T16:55:16.200917+00:00",
        "meta_object_name": "SHENZHOU-22",
        "meta_object_id": "2025-272A",
        "meta_epoch": "2025-12-22T04:38:19.938912",
        "meta_mean_motion": 15.59558261,
        "meta_eccentricity": 0.00077972,
        "meta_inclination": 41.4687,
        "meta_ra_of_asc_node": 319.2988,
        "meta_arg_of_pericenter": 114.0639,
        "meta_mean_anomaly": 246.1016,
        "meta_ephemeris_type": 0,
        "meta_classification_type": "U",
        "meta_norad_cat_id": 66645,
        "meta_element_set_no": 999,
        "meta_rev_at_epoch": 26550,
        "meta_bstar": 0.00024063854,
        "meta_mean_motion_dot": 0.00019415,
        "meta_mean_motion_ddot": 0,
        "tle_line1": "1 66645U 25272A   25356.19328633  .00019415  00000+0  24064-3 0  9999",
        "tle_line2": "2 66645  41.4687 319.2988 0007797 114.0639 246.1016 15.59558261265508"
      },
      "geometry": {
        "type": "Point",
        "coordinates": [
          -46.05047729874607,
          -1.9764183027362
        ]
      }
    },
    {
      "type": "Feature",
      "properties": {
        "norad_id": 66664,
        "name": "SOYUZ-MS 28",
        "group": "stations",
        "lat": -29.737140830852287,
        "lon": -59.96467524862089,
        "alt_km": 420.3267228193272,
        "timestamp": "2025-12-22T16:55:16.200927+00:00",
        "meta_object_name": "SOYUZ-MS 28",
        "meta_object_id": "2025-275A",
        "meta_epoch": "2025-12-21T22:57:18.016992",
        "meta_mean_motion": 15.49714244,
        "meta_eccentricity": 0.00031643,
        "meta_inclination": 51.6324,
        "meta_ra_of_asc_node": 96.8363,
        "meta_arg_of_pericenter": 283.4657,
        "meta_mean_anomaly": 76.5979,
        "meta_ephemeris_type": 0,
        "meta_classification_type": "U",
        "meta_norad_cat_id": 66664,
        "meta_element_set_no": 999,
        "meta_rev_at_epoch": 128,
        "meta_bstar": 0.00020227117,
        "meta_mean_motion_dot": 0.0001099,
        "meta_mean_motion_ddot": 0,
        "tle_line1": "1 66664U 25275A   25355.95645853  .00010990  00000+0  20227-3 0  9998",
        "tle_line2": "2 66664  51.6324  96.8363 0003164 283.4657  76.5979 15.49714244  1280"
      },
      "geometry": {
        "type": "Point",
        "coordinates": [
          -59.96467524862089,
          -29.737140830852287
        ]
      }
    },
    {
      "type": "Feature",
      "properties": {
        "norad_id": 66906,
        "name": "1998-067XS",
        "group": "stations",
        "lat": -46.81897787682979,
        "lon": 35.38728300280515,
        "alt_km": 416.6093650345865,
        "timestamp": "2025-12-22T16:55:16.200938+00:00",
        "meta_object_name": "1998-067XS",
        "meta_object_id": "1998-067XS",
        "meta_epoch": "2025-12-21T16:28:28.031520",
        "meta_mean_motion": 15.51020739,
        "meta_eccentricity": 0.00029292,
        "meta_inclination": 51.6318,
        "meta_ra_of_asc_node": 98.0337,
        "meta_arg_of_pericenter": 244.8838,
        "meta_mean_anomaly": 115.1848,
        "meta_ephemeris_type": 0,
        "meta_classification_type": "U",
        "meta_norad_cat_id": 66906,
        "meta_element_set_no": 999,
        "meta_rev_at_epoch": 300,
        "meta_bstar": 0.00043070009,
        "meta_mean_motion_dot": 0.00025109,
        "meta_mean_motion_ddot": 0,
        "tle_line1": "1 66906U 98067XS  25355.68643555  .00025109  00000+0  43070-3 0  9992",
        "tle_line2": "2 66906  51.6318  98.0337 0002929 244.8838 115.1848 15.51020739  3006"
      },
      "geometry": {
        "type": "Point",
        "coordinates": [
          35.38728300280515,
          -46.81897787682979
        ]
      }
    },
    {
      "type": "Feature",
      "properties": {
        "norad_id": 66907,
        "name": "1998-067XT",
        "group": "stations",
        "lat": -7.313935574162586,
        "lon": 87.01601398062489,
        "alt_km": 409.723873683708,
        "timestamp": "2025-12-22T16:55:16.200949+00:00",
        "meta_object_name": "1998-067XT",
        "meta_object_id": "1998-067XT",
        "meta_epoch": "2025-12-21T16:14:38.831712",
        "meta_mean_motion": 15.52487606,
        "meta_eccentricity": 0.00038339,
        "meta_inclination": 51.6315,
        "meta_ra_of_asc_node": 97.969,
        "meta_arg_of_pericenter": 280.3147,
        "meta_mean_anomaly": 79.741,
        "meta_ephemeris_type": 0,
        "meta_classification_type": "U",
        "meta_norad_cat_id": 66907,
        "meta_element_set_no": 999,
        "meta_rev_at_epoch": 300,
        "meta_bstar": 0.00094407034,
        "meta_mean_motion_dot": 0.00058863,
        "meta_mean_motion_ddot": 0,
        "tle_line1": "1 66907U 98067XT  25355.67683833  .00058863  00000+0  94407-3 0  9998",
        "tle_line2": "2 66907  51.6315  97.9690 0003833 280.3147  79.7410 15.52487606  3008"
      },
      "geometry": {
        "type": "Point",
        "coordinates": [
          87.01601398062489,
          -7.313935574162586
        ]
      }
    },
    {
      "type": "Feature",
      "properties": {
        "norad_id": 66908,
        "name": "1998-067XU",
        "group": "stations",
        "lat": -3.2830379045306994,
        "lon": 90.2357300910219,
        "alt_km": 409.31470148848894,
        "timestamp": "2025-12-22T16:55:16.200959+00:00",
        "meta_object_name": "1998-067XU",
        "meta_object_id": "1998-067XU",
        "meta_epoch": "2025-12-21T00:46:29.963136",
        "meta_mean_motion": 15.52510982,
        "meta_eccentricity": 0.00039042,
        "meta_inclination": 51.6311,
        "meta_ra_of_asc_node": 101.1653,
        "meta_arg_of_pericenter": 276.2494,
        "meta_mean_anomaly": 83.8051,
        "meta_ephemeris_type": 0,
        "meta_classification_type": "U",
        "meta_norad_cat_id": 66908,
        "meta_element_set_no": 999,
        "meta_rev_at_epoch": 290,
        "meta_bstar": 0.00080289362,
        "meta_mean_motion_dot": 0.00049977,
        "meta_mean_motion_ddot": 0,
        "tle_line1": "1 66908U 98067XU  25355.03229124  .00049977  00000+0  80289-3 0  9997",
        "tle_line2": "2 66908  51.6311 101.1653 0003904 276.2494  83.8051 15.52510982  2909"
      },
      "geometry": {
        "type": "Point",
        "coordinates": [
          90.2357300910219,
          -3.2830379045306994
        ]
      }
    }
  ]
}